NORAD_CAT_ID,OBJECT_NAME,OBJECT_TYPE,EPOCH,MEAN_MOTION,ECCENTRICITY,INCLINATION,RA_OF_ASC_NODE,ARG_OF_PERICENTER,MEAN_ANOMALY,BSTAR,MEAN_MOTION_DOT,MEAN_MOTION_DDOT,TLE_LINE0,TLE_LINE1,TLE_LINE2,SEMIMAJOR_AXIS,PERIOD,APOGEE,PERIGEE,DECAYED
55674.0,STARLINK-5462,PAYLOAD,2023-05-17 17:38:18,15.69920861,0.000351,69.9995,259.7899,259.455,100.625,1.332e-05,1.389e-05,0.0,0 STARLINK-5462,1 55674U 23021AY  23137.73493948  .00001389  00000-0  13320-4 0  9992,2 55674  69.9995 259.7899 0003510 259.4550 100.6250 15.69920861 14819,6737.26,91.724,361.49,356.761,0.0
55674.0,STARLINK-5462,PAYLOAD,2023-05-18 01:17:03,15.69935196,0.0003149,69.9992,258.893,268.4752,91.6083,2.3734e-05,2.643e-05,0.0,0 STARLINK-5462,1 55674U 23021AY  23138.05351332  .00002643  00000-0  23734-4 0  9992,2 55674  69.9992 258.8930 0003149 268.4752  91.6083 15.69935196 14555,6737.219,91.724,361.206,356.963,0.0
55674.0,STARLINK-5462,PAYLOAD,2023-05-18 10:27:35,15.69916284,0.0003627,69.9993,257.8186,265.2235,94.8547,1.972e-06,2.4e-07,0.0,0 STARLINK-5462,1 55674U 23021AY  23138.43582681  .00000024  00000-0  19720-5 0  9999,2 55674  69.9993 257.8186 0003627 265.2235  94.8547 15.69916284 14614,6737.274,91.725,361.582,356.695,0.0
55674.0,STARLINK-5462,PAYLOAD,2023-05-19 09:23:51,15.69928351,0.0003749,69.9991,255.1316,264.5383,95.5385,5.7846e-06,4.83e-06,0.0,0 STARLINK-5462,1 55674U 23021AY  23139.39157122  .00000483  00000-0  57846-5 0  9993,2 55674  69.9991 255.1316 0003749 264.5383  95.5385 15.69928351 14761,6737.239,91.724,361.63,356.578,0.0
55674.0,STARLINK-5462,PAYLOAD,2023-05-19 10:55:36,15.69929853,0.000371,69.9989,254.9525,263.342,96.7353,5.1612e-06,4.08e-06,0.0,0 STARLINK-5462,1 55674U 23021AY  23139.45528712  .00000408  00000-0  51612-5 0  9999,2 55674  69.9989 254.9525 0003710 263.3420  96.7353 15.69929853 15086,6737.235,91.724,361.599,356.6,0.0
55674.0,STARLINK-5462,PAYLOAD,2023-05-20 09:51:53,15.69930693,0.000366,70.0021,252.2667,266.765,93.3127,2.2015e-05,2.436e-05,0.0,0 STARLINK-5462,1 55674U 23021AY  23140.41103582  .00002436  00000-0  22015-4 0  9998,2 55674  70.0021 252.2667 0003660 266.7650  93.3127 15.69930693 14928,6737.232,91.724,361.563,356.631,0.0
55674.0,STARLINK-5462,PAYLOAD,2023-05-20 17:30:39,15.69916544,0.0003434,70.0023,251.3713,271.2332,88.847,3.6488e-06,2.26e-06,0.0,0 STARLINK-5462,1 55674U 23021AY  23140.72962563  .00000226  00000-0  36488-5 0  9999,2 55674  70.0023 251.3713 0003434 271.2332  88.8470 15.69916544 14973,6737.273,91.725,361.451,356.824,0.0
55674.0,STARLINK-5462,PAYLOAD,2023-05-21 10:19:56,15.69910332,0.0003301,70.0029,249.4009,266.2459,93.836,-2.431e-05,-3.133e-05,0.0,0 STARLINK-5462,1 55674U 23021AY  23141.43051382 -.00003133  00000-0 -24310-4 0  9998,2 55674  70.0029 249.4009 0003301 266.2459  93.8360 15.69910332 15392,6737.291,91.725,361.38,356.932,0.0
55674.0,STARLINK-5462,PAYLOAD,2023-05-21 16:26:56,15.6991888,0.0002859,70.0026,248.6858,255.3843,104.7036,9.2525e-07,-1.01e-06,0.0,0 STARLINK-5462,1 55674U 23021AY  23141.68537905 -.00000101  00000-0  92525-6 0  9991,2 55674  70.0026 248.6858 0002859 255.3843 104.7036 15.69918880 15438,6737.266,91.724,361.057,357.205,0.0
55674.0,STARLINK-5462,PAYLOAD,2023-05-22 00:05:42,15.69926917,0.0003076,70.0033,247.7927,248.7212,111.3656,1.6561e-05,1.779e-05,0.0,0 STARLINK-5462,1 55674U 23021AY  23142.00396072  .00001779  00000-0  16561-4 0  9991,2 55674  70.0033 247.7927 0003076 248.7212 111.3656 15.69926917 15174,6737.243,91.724,361.18,357.036,0.0
55674.0,STARLINK-5462,PAYLOAD,2023-05-22 10:47:57,15.69935233,0.0003816,70.001,246.5342,265.9696,94.1064,5.5387e-05,6.456e-05,0.0,0 STARLINK-5462,1 55674U 23021AY  23142.44997297  .00006456  00000-0  55387-4 0  9991,2 55674  70.0010 246.5342 0003816 265.9696  94.1064 15.69935233 15550,6737.219,91.724,361.655,356.513,0.0
55674.0,STARLINK-5462,PAYLOAD,2023-05-22 16:54:58,15.69936684,0.0004066,70.0008,245.8179,264.6084,95.4648,4.6802e-05,5.422e-05,0.0,0 STARLINK-5462,1 55674U 23021AY  23142.70484027  .00005422  00000-0  46802-4 0  9996,2 55674  70.0008 245.8179 0004066 264.6084  95.4648 15.69936684 15599,6737.215,91.723,361.819,356.341,0.0
55674.0,STARLINK-5462,PAYLOAD,2023-05-23 09:44:14,15.69941024,0.0002868,70.0028,243.8507,249.7648,110.3239,5.9842e-05,6.993e-05,0.0,0 STARLINK-5462,1 55674U 23021AY  23143.40572346  .00006993  00000-0  59842-4 0  9998,2 55674  70.0028 243.8507 0002868 249.7648 110.3239 15.69941024 15397,6737.203,91.723,361.0,357.135,0.0
55674.0,STARLINK-5462,PAYLOAD,2023-05-23 15:51:15,15.69931194,0.0002784,70.0017,243.1301,284.9946,75.0941,3.7791e-05,4.335e-05,0.0,0 STARLINK-5462,1 55674U 23021AY  23143.66059471  .00004335  00000-0  37791-4 0  9992,2 55674  70.0017 243.1301 0002784 284.9946  75.0941 15.69931194 15438,6737.231,91.724,360.971,357.22,0.0
55674.0,STARLINK-5462,PAYLOAD,2023-05-23 23:30:01,15.69916848,0.0003442,70.0008,242.2344,274.3627,85.7175,-7.1878e-06,-1.077e-05,0.0,0 STARLINK-5462,1 55674U 23021AY  23143.97917997 -.00001077  00000-0 -71878-5 0  9999,2 55674  70.0008 242.2344 0003442 274.3627  85.7175 15.69916848 15487,6737.272,91.725,361.456,356.818,0.0
55674.0,STARLINK-5462,PAYLOAD,2023-05-24 14:47:32,15.699284,0.000369,69.9999,240.4422,278.6809,81.3968,4.3782e-05,5.056e-05,0.0,0 STARLINK-5462,1 55674U 23021AY  23144.61634572  .00005056  00000-0  43782-4 0  9997,2 55674  69.9999 240.4422 0003690 278.6809  81.3968 15.69928400 15584,6737.239,91.724,361.59,356.618,0.0
55674.0,STARLINK-5462,PAYLOAD,2023-05-25 13:43:49,15.69932955,0.0003485,70.0002,237.7555,273.034,87.0457,5.8354e-05,6.812e-05,0.0,0 STARLINK-5462,1 55674U 23021AY  23145.57209517  .00006812  00000-0  58354-4 0  9992,2 55674  70.0002 237.7555 0003485 273.0340  87.0457 15.69932955 16047,6737.226,91.724,361.439,356.743,0.0
55674.0,STARLINK-5462,PAYLOAD,2023-05-25 15:15:34,15.69933589,0.0003489,70.0002,237.5763,272.9982,87.0815,5.7785e-05,6.744e-05,0.0,0 STARLINK-5462,1 55674U 23021AY  23145.63581158  .00006744  00000-0  57785-4 0  9994,2 55674  70.0002 237.5763 0003489 272.9982  87.0815 15.69933589 15748,6737.224,91.724,361.44,356.738,0.0
55674.0,STARLINK-5462,PAYLOAD,2023-05-26 09:36:35,15.69921904,0.0003303,70.0002,235.4264,273.9678,86.114,1.4019e-05,1.473e-05,0.0,0 STARLINK-5462,1 55674U 23021AY  23146.40041588  .00001473  00000-0  14019-4 0  9995,2 55674  70.0002 235.4264 0003303 273.9678  86.1140 15.69921904 15861,6737.257,91.724,361.348,356.897,0.0
55674.0,STARLINK-5462,PAYLOAD,2023-05-26 15:43:36,15.69925901,0.0003232,69.9999,234.71,274.2383,85.8443,1.6403e-05,1.76e-05,0.0,0 STARLINK-5462,1 55674U 23021AY  23146.65528152  .00001760  00000-0  16403-4 0  9997,2 55674  69.9999 234.7100 0003232 274.2383  85.8443 15.69925901 16215,6737.246,91.724,361.288,356.934,0.0
55674.0,STARLINK-5462,PAYLOAD,2023-05-27 11:36:23,15.6992137,0.0003358,69.9999,232.3823,274.2167,85.8644,8.3536e-06,7.92e-06,0.0,0 STARLINK-5462,1 55674U 23021AY  23147.48360142  .00000792  00000-0  83536-5 0  9998,2 55674  69.9999 232.3823 0003358 274.2167  85.8644 15.69921370 16039,6737.259,91.724,361.386,356.862,0.0
55674.0,STARLINK-5462,PAYLOAD,2023-05-27 16:11:38,15.69921024,0.0003188,70.0004,231.8452,285.384,74.7004,6.3985e-06,5.57e-06,0.0,0 STARLINK-5462,1 55674U 23021AY  23147.67475268  .00000557  00000-0  63985-5 0  9990,2 55674  70.0004 231.8452 0003188 285.3840  74.7004 15.69921024 16373,6737.26,91.724,361.273,356.977,0.0
55674.0,STARLINK-5462,PAYLOAD,2023-05-28 04:25:50,15.69737825,0.000252,70.0002,230.4132,270.8729,89.2178,-0.00028969,-0.0003463,0.0,0 STARLINK-5462,1 55674U 23021AY  23148.18461546 -.00034630  00000-0 -28969-3 0  9993,2 55674  70.0002 230.4132 0002520 270.8729  89.2178 15.69737825 16451,6737.784,91.735,361.347,357.951,0.0
55674.0,STARLINK-5462,PAYLOAD,2023-05-28 09:00:56,15.6990706,0.0003204,69.9989,229.875,267.4801,92.6028,-3.6954e-06,-6.57e-06,0.0,0 STARLINK-5462,1 55674U 23021AY  23148.37565439 -.00000657  00000-0 -36954-5 0  9997,2 55674  69.9989 229.8750 0003204 267.4801  92.6028 15.69907060 16174,6737.3,91.725,361.324,357.006,0.0
55674.0,STARLINK-5462,PAYLOAD,2023-05-28 15:07:56,15.69909241,0.0002817,70.0009,229.1578,268.9191,91.1682,5.8047e-06,4.85e-06,0.0,0 STARLINK-5462,1 55674U 23021AY  23148.63051837  .00000485  00000-0  58047-5 0  9992,2 55674  70.0009 229.1578 0002817 268.9191  91.1682 15.69909241 16520,6737.294,91.725,361.057,357.261,0.0
55674.0,STARLINK-5462,PAYLOAD,2023-05-29 07:57:12,15.69919092,0.0004823,69.9998,227.189,287.6749,72.392,5.2477e-05,6.102e-05,0.0,0 STARLINK-5462,1 55674U 23021AY  23149.33139411  .00006102  00000-0  52477-4 0  9997,2 55674  69.9998 227.1890 0004823 287.6749  72.3920 15.69919092 16324,6737.265,91.724,362.38,355.881,0.0
55674.0,STARLINK-5462,PAYLOAD,2023-05-29 14:04:12,15.69927659,0.0003331,69.9997,226.4721,265.2511,94.8304,8.3091e-06,7.87e-06,0.0,0 STARLINK-5462,1 55674U 23021AY  23149.58625035  .00000787  00000-0  83091-5 0  9996,2 55674  69.9997 226.4721 0003331 265.2511  94.8304 15.69927659 16671,6737.241,91.724,361.35,356.862,0.0
55674.0,STARLINK-5462,PAYLOAD,2023-05-30 08:25:13,15.69928922,0.0003238,70.0003,224.3226,255.6489,104.4347,1.3164e-05,1.371e-05,0.0,0 STARLINK-5462,1 55674U 23021AY  23150.35085301  .00001371  00000-0  13164-4 0  9992,2 55674  70.0003 224.3226 0003238 255.6489 104.4347 15.69928922 16794,6737.237,91.724,361.284,356.921,0.0
55674.0,STARLINK-5462,PAYLOAD,2023-05-30 14:32:14,15.69926864,0.000324,69.9992,223.6033,263.605,96.4777,1.3959e-05,1.466e-05,0.0,0 STARLINK-5462,1 55674U 23021AY  23150.60572098  .00001466  00000-0  13959-4 0  9991,2 55674  69.9992 223.6033 0003240 263.6050  96.4777 15.69926864 16523,6737.243,91.724,361.291,356.925,0.0
55674.0,STARLINK-5462,PAYLOAD,2023-05-31 13:28:31,15.69926681,0.0003171,69.9974,220.9162,270.214,89.8693,1.0408e-05,1.039e-05,0.0,0 STARLINK-5462,1 55674U 23021AY  23151.56147044  .00001039  00000-0  10408-4 0  9998,2 55674  69.9974 220.9162 0003171 270.2140  89.8693 15.69926681 16983,6737.244,91.724,361.245,356.972,0.0
